{
  "type": "FeatureCollection",
  "features": [
    {
      "type": "Feature",
      "properties": {
        "norad_id": 30243,
        "name": "FENGYUN 1C DEB",
        "group": "fengyun-1c-debris",
        "lat": -0.7223545442429055,
        "lon": -176.2053879721072,
        "alt_km": 849.9057290725614,
        "timestamp": "2025-12-18T15:47:11.498035+00:00",
        "meta_object_name": "FENGYUN 1C DEB",
        "meta_object_id": "1999-025XC",
        "meta_epoch": "2025-12-17T23:53:40.184736",
        "meta_mean_motion": 14.13029506,
        "meta_eccentricity": 0.00131697,
        "meta_inclination": 98.6929,
        "meta_ra_of_asc_node": 3.2622,
        "meta_arg_of_pericenter": 105.2566,
        "meta_mean_anomaly": 308.7087,
        "meta_ephemeris_type": 0,
        "meta_classification_type": "U",
        "meta_norad_cat_id": 30243,
        "meta_element_set_no": 999,
        "meta_rev_at_epoch": 97353,
        "meta_bstar": 0.00033428503,
        "meta_mean_motion_dot": 5.82e-06,
        "meta_mean_motion_ddot": 0,
        "tle_line1": "1 30243U 99025XC  25351.99560399  .00000582  00000+0  33429-3 0  9991",
        "tle_line2": "2 30243  98.6929   3.2622 0013169 105.2566 308.7087 14.13029506973538"
      },
      "geometry": {
        "type": "Point",
        "coordinates": [
          -176.2053879721072,
          -0.7223545442429055
        ]
      }
    },
    {
      "type": "Feature",
      "properties": {
        "norad_id": 30244,
        "name": "FENGYUN 1C DEB",
        "group": "fengyun-1c-debris",
        "lat": 56.981412660937266,
        "lon": -131.89437518139374,
        "alt_km": 840.0807510426976,
        "timestamp": "2025-12-18T15:47:11.498047+00:00",
        "meta_object_name": "FENGYUN 1C DEB",
        "meta_object_id": "1999-025XD",
        "meta_epoch": "2025-12-18T05:53:52.348992",
        "meta_mean_motion": 14.15024286,
        "meta_eccentricity": 0.00093182,
        "meta_inclination": 99.1434,
        "meta_ra_of_asc_node": 242.0324,
        "meta_arg_of_pericenter": 299.223,
        "meta_mean_anomaly": 181.1355,
        "meta_ephemeris_type": 0,
        "meta_classification_type": "U",
        "meta_norad_cat_id": 30244,
        "meta_element_set_no": 999,
        "meta_rev_at_epoch": 97424,
        "meta_bstar": 0.00032674889,
        "meta_mean_motion_dot": 5.86e-06,
        "meta_mean_motion_ddot": 0,
        "tle_line1": "1 30244U 99025XD  25352.24574478  .00000586  00000+0  32675-3 0  9990",
        "tle_line2": "2 30244  99.1434 242.0324 0009318 299.2230 181.1355 14.15024286974243"
      },
      "geometry": {
        "type": "Point",
        "coordinates": [
          -131.89437518139374,
          56.981412660937266
        ]
      }
    },
    {
      "type": "Feature",
      "properties": {
        "norad_id": 30245,
        "name": "FENGYUN 1C DEB",
        "group": "fengyun-1c-debris",
        "lat": 28.203490724830427,
        "lon": 164.71019735829975,
        "alt_km": 947.7935670367933,
        "timestamp": "2025-12-18T15:47:11.498057+00:00",
        "meta_object_name": "FENGYUN 1C DEB",
        "meta_object_id": "1999-025XE",
        "meta_epoch": "2025-12-18T06:19:46.073280",
        "meta_mean_motion": 13.79081958,
        "meta_eccentricity": 0.0192969,
        "meta_inclination": 98.8891,
        "meta_ra_of_asc_node": 339.5261,
        "meta_arg_of_pericenter": 236.1845,
        "meta_mean_anomaly": 122.0805,
        "meta_ephemeris_type": 0,
        "meta_classification_type": "U",
        "meta_norad_cat_id": 30245,
        "meta_element_set_no": 999,
        "meta_rev_at_epoch": 94770,
        "meta_bstar": 0.00090589347,
        "meta_mean_motion_dot": 1.023e-05,
        "meta_mean_motion_ddot": 0,
        "tle_line1": "1 30245U 99025XE  25352.26372770  .00001023  00000+0  90589-3 0  9999",
        "tle_line2": "2 30245  98.8891 339.5261 0192969 236.1845 122.0805 13.79081958947709"
      },
      "geometry": {
        "type": "Point",
        "coordinates": [
          164.71019735829975,
          28.203490724830427
        ]
      }
    },
    {
      "type": "Feature",
      "properties": {
        "norad_id": 30246,
        "name": "FENGYUN 1C DEB",
        "group": "fengyun-1c-debris",
        "lat": 73.31122249251497,
        "lon": 104.86352486962797,
        "alt_km": 838.6586106316563,
        "timestamp": "2025-12-18T15:47:11.498068+00:00",
        "meta_object_name": "FENGYUN 1C DEB",
        "meta_object_id": "1999-025XF",
        "meta_epoch": "2025-12-18T03:44:01.707648",
        "meta_mean_motion": 13.37021082,
        "meta_eccentricity": 0.03706166,
        "meta_inclination": 98.6732,
        "meta_ra_of_asc_node": 135.0395,
        "meta_arg_of_pericenter": 86.1259,
        "meta_mean_anomaly": 94.2977,
        "meta_ephemeris_type": 0,
        "meta_classification_type": "U",
        "meta_norad_cat_id": 30246,
        "meta_element_set_no": 999,
        "meta_rev_at_epoch": 92212,
        "meta_bstar": 0.00020075411,
        "meta_mean_motion_dot": 1.23e-06,
        "meta_mean_motion_ddot": 0,
        "tle_line1": "1 30246U 99025XF  25352.15557532  .00000123  00000+0  20075-3 0  9992",
        "tle_line2": "2 30246  98.6732 135.0395 0370616  86.1259  94.2977 13.37021082922123"
      },
      "geometry": {
        "type": "Point",
        "coordinates": [
          104.86352486962797,
          73.31122249251497
        ]
      }
    },
    {
      "type": "Feature",
      "properties": {
        "norad_id": 30247,
        "name": "FENGYUN 1C DEB",
        "group": "fengyun-1c-debris",
        "lat": -40.87760386829103,
        "lon": 72.5598809309008,
        "alt_km": 751.4673013034244,
        "timestamp": "2025-12-18T15:47:11.498078+00:00",
        "meta_object_name": "FENGYUN 1C DEB",
        "meta_object_id": "1999-025XG",
        "meta_epoch": "2025-12-18T07:06:51.052608",
        "meta_mean_motion": 14.5938573,
        "meta_eccentricity": 0.01930018,
        "meta_inclination": 98.2775,
        "meta_ra_of_asc_node": 259.4381,
        "meta_arg_of_pericenter": 334.8495,
        "meta_mean_anomaly": 151.1838,
        "meta_ephemeris_type": 0,
        "meta_classification_type": "U",
        "meta_norad_cat_id": 30247,
        "meta_element_set_no": 999,
        "meta_rev_at_epoch": 97363,
        "meta_bstar": 0.0028638,
        "meta_mean_motion_dot": 0.0001758,
        "meta_mean_motion_ddot": 0,
        "tle_line1": "1 30247U 99025XG  25352.29642422  .00017580  00000+0  28638-2 0  9998",
        "tle_line2": "2 30247  98.2775 259.4381 0193001 334.8495 151.1838 14.59385730973638"
      },
      "geometry": {
        "type": "Point",
        "coordinates": [
          72.5598809309008,
          -40.87760386829103
        ]
      }
    },
    {
      "type": "Feature",
      "properties": {
        "norad_id": 30248,
        "name": "FENGYUN 1C DEB",
        "group": "fengyun-1c-debris",
        "lat": -75.39994644930765,
        "lon": -40.614469502830055,
        "alt_km": 714.0713439608307,
        "timestamp": "2025-12-18T15:47:11.498089+00:00",
        "meta_object_name": "FENGYUN 1C DEB",
        "meta_object_id": "1999-025XH",
        "meta_epoch": "2025-12-17T10:38:02.353056",
        "meta_mean_motion": 14.59339808,
        "meta_eccentricity": 0.00281578,
        "meta_inclination": 99.0967,
        "meta_ra_of_asc_node": 176.0142,
        "meta_arg_of_pericenter": 136.4914,
        "meta_mean_anomaly": 223.8511,
        "meta_ephemeris_type": 0,
        "meta_classification_type": "U",
        "meta_norad_cat_id": 30248,
        "meta_element_set_no": 999,
        "meta_rev_at_epoch": 97497,
        "meta_bstar": 0.0028467168,
        "meta_mean_motion_dot": 0.00013509,
        "meta_mean_motion_ddot": 0,
        "tle_line1": "1 30248U 99025XH  25351.44308279  .00013509  00000+0  28467-2 0  9991",
        "tle_line2": "2 30248  99.0967 176.0142 0028157 136.4914 223.8511 14.59339808974979"
      },
      "geometry": {
        "type": "Point",
        "coordinates": [
          -40.614469502830055,
          -75.39994644930765
        ]
      }
    },
    {
      "type": "Feature",
      "properties": {
        "norad_id": 30249,
        "name": "FENGYUN 1C DEB",
        "group": "fengyun-1c-debris",
        "lat": -65.45000337743332,
        "lon": 177.7286130057899,
        "alt_km": 707.31778882053,
        "timestamp": "2025-12-18T15:47:11.498099+00:00",
        "meta_object_name": "FENGYUN 1C DEB",
        "meta_object_id": "1999-025XJ",
        "meta_epoch": "2025-12-18T00:10:01.256736",
        "meta_mean_motion": 14.57816258,
        "meta_eccentricity": 0.00266517,
        "meta_inclination": 98.9582,
        "meta_ra_of_asc_node": 156.8264,
        "meta_arg_of_pericenter": 24.9377,
        "meta_mean_anomaly": 94.7733,
        "meta_ephemeris_type": 0,
        "meta_classification_type": "U",
        "meta_norad_cat_id": 30249,
        "meta_element_set_no": 999,
        "meta_rev_at_epoch": 97640,
        "meta_bstar": 0.0024601993,
        "meta_mean_motion_dot": 0.00011276,
        "meta_mean_motion_ddot": 0,
        "tle_line1": "1 30249U 99025XJ  25352.00695899  .00011276  00000+0  24602-2 0  9998",
        "tle_line2": "2 30249  98.9582 156.8264 0026651  24.9377  94.7733 14.57816258976401"
      },
      "geometry": {
        "type": "Point",
        "coordinates": [
          177.7286130057899,
          -65.45000337743332
        ]
      }
    }
  ]
}